start=new Date('2022-04-10T00:00:00.000Z').valueOf();
sats=[{"PERIOD":"95.592","COUNTRY_CODE":"US","CENTER_NAME":"EARTH","PERIAPSIS":"545.962","TLE_LINE2":"2 45780  53.0539 137.2471 0001779  60.7828 299.3339 15.06406306102104","LAUNCH_DATE":"2020-06-13","OBJECT_NAME":"STARLINK-1496","SITE":"AFETR","BSTAR":"0.00011041000000","MEAN_ELEMENT_THEORY":"SGP4","TIME_SYSTEM":"UTC","RCS_SIZE":"LARGE","EPHEMERIS_TYPE":"0","NORAD_CAT_ID":"45780","ARG_OF_PERICENTER":"60.7828","MEAN_MOTION_DOT":"0.00001364","OBJECT_TYPE":"PAYLOAD","EPOCH":"2022-04-09T10:41:15.800064","REV_AT_EPOCH":"10210","APOAPSIS":"548.426","DECAY_DATE":null,"ECCENTRICITY":"0.00017790","GP_ID":"200798360","INCLINATION":"53.0539","TLE_LINE1":"1 45780U 20038BC  22099.44532176  .00001364  00000-0  11041-3 0  9995","REF_FRAME":"TEME","FILE":"3394604","ELEMENT_SET_NO":"999","MEAN_MOTION":"15.06406306","MEAN_ANOMALY":"299.3339","OBJECT_ID":"2020-038BC","RA_OF_ASC_NODE":"137.2471","SEMIMAJOR_AXIS":"6925.329","CLASSIFICATION_TYPE":"U","MEAN_MOTION_DDOT":"0.0000000000000"},{"SEMIMAJOR_AXIS":"6925.361","MEAN_MOTION_DDOT":"0.0000000000000","CLASSIFICATION_TYPE":"U","FILE":"3395351","ELEMENT_SET_NO":"999","MEAN_MOTION":"15.06396033","MEAN_ANOMALY":"309.6754","RA_OF_ASC_NODE":"135.6345","OBJECT_ID":"2020-038BD","DECAY_DATE":null,"ECCENTRICITY":"0.00020270","GP_ID":"200860175","TLE_LINE1":"1 45781U 20038BD  22099.80286302 -.00001969  00000-0 -11330-3 0  9997","INCLINATION":"53.0529","REF_FRAME":"TEME","EPOCH":"2022-04-09T19:16:07.364928","REV_AT_EPOCH":"10123","APOAPSIS":"548.629","ARG_OF_PERICENTER":"50.4414","MEAN_MOTION_DOT":"-0.00001969","OBJECT_TYPE":"PAYLOAD","SITE":"AFETR","BSTAR":"-0.00011330000000","MEAN_ELEMENT_THEORY":"SGP4","TIME_SYSTEM":"UTC","RCS_SIZE":"LARGE","EPHEMERIS_TYPE":"0","NORAD_CAT_ID":"45781","CENTER_NAME":"EARTH","TLE_LINE2":"2 45781  53.0529 135.6345 0002027  50.4414 309.6754 15.06396033101234","PERIAPSIS":"545.822","LAUNCH_DATE":"2020-06-13","OBJECT_NAME":"STARLINK-1497","PERIOD":"95.592","COUNTRY_CODE":"US"},{"SITE":"AFETR","BSTAR":"-0.00008618200000","MEAN_ELEMENT_THEORY":"SGP4","TIME_SYSTEM":"UTC","RCS_SIZE":"LARGE","NORAD_CAT_ID":"45782","EPHEMERIS_TYPE":"0","ARG_OF_PERICENTER":"53.9792","MEAN_MOTION_DOT":"-0.00001565","OBJECT_TYPE":"PAYLOAD","PERIOD":"95.592","COUNTRY_CODE":"US","CENTER_NAME":"EARTH","PERIAPSIS":"545.868","TLE_LINE2":"2 45782  53.0535 135.6718 0001949  53.9792 306.1378 15.06398647101243","LAUNCH_DATE":"2020-06-13","OBJECT_NAME":"STARLINK-1498","FILE":"3395351","MEAN_MOTION":"15.06398647","ELEMENT_SET_NO":"999","MEAN_ANOMALY":"306.1378","OBJECT_ID":"2020-038BE","RA_OF_ASC_NODE":"135.6718","SEMIMAJOR_AXIS":"6925.353","MEAN_MOTION_DDOT":"0.0000000000000","CLASSIFICATION_TYPE":"U","EPOCH":"2022-04-09T19:05:30.070752","REV_AT_EPOCH":"10124","APOAPSIS":"548.567","DECAY_DATE":null,"GP_ID":"200860917","ECCENTRICITY":"0.00019490","INCLINATION":"53.0535","TLE_LINE1":"1 45782U 20038BE  22099.79548693 -.00001565  00000-0 -86182-4 0  9990","REF_FRAME":"TEME"},{"FILE":"3395351","ELEMENT_SET_NO":"999","MEAN_ANOMALY":"298.9560","MEAN_MOTION":"15.06401678","OBJECT_ID":"2020-038BF","RA_OF_ASC_NODE":"135.6471","SEMIMAJOR_AXIS":"6925.343","CLASSIFICATION_TYPE":"U","MEAN_MOTION_DDOT":"0.0000000000000","EPOCH":"2022-04-09T19:10:48.839232","REV_AT_EPOCH":"10124","APOAPSIS":"548.265","DECAY_DATE":null,"GP_ID":"200861147","ECCENTRICITY":"0.00015260","REF_FRAME":"TEME","TLE_LINE1":"1 45783U 20038BF  22099.79917638  .00003577  00000-0  25887-3 0  9997","INCLINATION":"53.0547","SITE":"AFETR","BSTAR":"0.00025887000000","MEAN_ELEMENT_THEORY":"SGP4","TIME_SYSTEM":"UTC","RCS_SIZE":"LARGE","EPHEMERIS_TYPE":"0","NORAD_CAT_ID":"45783","ARG_OF_PERICENTER":"61.1582","MEAN_MOTION_DOT":"0.00003577","OBJECT_TYPE":"PAYLOAD","PERIOD":"95.592","COUNTRY_CODE":"US","CENTER_NAME":"EARTH","TLE_LINE2":"2 45783  53.0547 135.6471 0001526  61.1582 298.9560 15.06401678101242","PERIAPSIS":"546.152","LAUNCH_DATE":"2020-06-13","OBJECT_NAME":"STARLINK-1505"},{"RA_OF_ASC_NODE":"136.6589","OBJECT_ID":"2020-038BG","FILE":"3395351","MEAN_MOTION":"15.06405706","ELEMENT_SET_NO":"999","MEAN_ANOMALY":"301.0344","SEMIMAJOR_AXIS":"6925.331","MEAN_MOTION_DDOT":"0.0000000000000","CLASSIFICATION_TYPE":"U","REV_AT_EPOCH":"10120","EPOCH":"2022-04-09T13:47:01.726656","APOAPSIS":"548.464","ECCENTRICITY":"0.00018310","GP_ID":"200859922","DECAY_DATE":null,"TLE_LINE1":"1 45784U 20038BG  22099.57432554  .00000781  00000-0  71351-4 0  9995","INCLINATION":"53.0514","REF_FRAME":"TEME","BSTAR":"0.00007135100000","MEAN_ELEMENT_THEORY":"SGP4","SITE":"AFETR","NORAD_CAT_ID":"45784","EPHEMERIS_TYPE":"0","TIME_SYSTEM":"UTC","RCS_SIZE":"LARGE","ARG_OF_PERICENTER":"59.0825","MEAN_MOTION_DOT":"0.00000781","OBJECT_TYPE":"PAYLOAD","PERIOD":"95.592","COUNTRY_CODE":"US","LAUNCH_DATE":"2020-06-13","CENTER_NAME":"EARTH","TLE_LINE2":"2 45784  53.0514 136.6589 0001831  59.0825 301.0344 15.06405706101201","PERIAPSIS":"545.928","OBJECT_NAME":"STARLINK-1510"},{"REV_AT_EPOCH":"10124","EPOCH":"2022-04-09T19:42:39.176928","APOAPSIS":"548.502","ECCENTRICITY":"0.00018680","GP_ID":"200860675","DECAY_DATE":null,"TLE_LINE1":"1 45785U 20038BH  22099.82128677  .00001379  00000-0  11146-3 0  9991","INCLINATION":"53.0532","REF_FRAME":"TEME","OBJECT_ID":"2020-038BH","RA_OF_ASC_NODE":"135.5355","FILE":"3395351","MEAN_ANOMALY":"311.2145","ELEMENT_SET_NO":"999","MEAN_MOTION":"15.06401720","SEMIMAJOR_AXIS":"6925.343","MEAN_MOTION_DDOT":"0.0000000000000","CLASSIFICATION_TYPE":"U","PERIOD":"95.592","COUNTRY_CODE":"US","LAUNCH_DATE":"2020-06-13","TLE_LINE2":"2 45785  53.0532 135.5355 0001868  48.9005 311.2145 15.06401720101246","PERIAPSIS":"545.915","CENTER_NAME":"EARTH","OBJECT_NAME":"STARLINK-1512","MEAN_ELEMENT_THEORY":"SGP4","BSTAR":"0.00011146000000","SITE":"AFETR","EPHEMERIS_TYPE":"0","NORAD_CAT_ID":"45785","RCS_SIZE":"LARGE","TIME_SYSTEM":"UTC","ARG_OF_PERICENTER":"48.9005","OBJECT_TYPE":"PAYLOAD","MEAN_MOTION_DOT":"0.00001379"},{"FILE":"3395351","ELEMENT_SET_NO":"999","MEAN_MOTION":"15.06393292","MEAN_ANOMALY":"307.6026","RA_OF_ASC_NODE":"135.6169","OBJECT_ID":"2020-038BJ","CLASSIFICATION_TYPE":"U","MEAN_MOTION_DDOT":"0.0000000000000","SEMIMAJOR_AXIS":"6925.369","APOAPSIS":"548.488","EPOCH":"2022-04-09T19:21:25.434432","REV_AT_EPOCH":"10124","INCLINATION":"53.0545","TLE_LINE1":"1 45786U 20038BJ  22099.80654438 -.00002832  00000-0 -17134-3 0  9999","REF_FRAME":"TEME","DECAY_DATE":null,"GP_ID":"200861417","ECCENTRICITY":"0.00018110","RCS_SIZE":"LARGE","TIME_SYSTEM":"UTC","EPHEMERIS_TYPE":"0","NORAD_CAT_ID":"45786","SITE":"AFETR","MEAN_ELEMENT_THEORY":"SGP4","BSTAR":"-0.00017134000000","OBJECT_TYPE":"PAYLOAD","MEAN_MOTION_DOT":"-0.00002832","ARG_OF_PERICENTER":"52.5127","COUNTRY_CODE":"US","PERIOD":"95.593","OBJECT_NAME":"STARLINK-1513","PERIAPSIS":"545.980","TLE_LINE2":"2 45786  53.0545 135.6169 0001811  52.5127 307.6026 15.06393292101240","CENTER_NAME":"EARTH","LAUNCH_DATE":"2020-06-13"},{"MEAN_MOTION_DDOT":"0.0000000000000","CLASSIFICATION_TYPE":"U","SEMIMAJOR_AXIS":"6925.370","ELEMENT_SET_NO":"999","FILE":"3395351","MEAN_MOTION":"15.06392854","MEAN_ANOMALY":"304.9201","OBJECT_ID":"2020-038BK","RA_OF_ASC_NODE":"135.5866","TLE_LINE1":"1 45787U 20038BK  22099.81392277 -.00001291  00000-0 -67781-4 0  9993","REF_FRAME":"TEME","INCLINATION":"53.0543","DECAY_DATE":null,"ECCENTRICITY":"0.00016390","GP_ID":"200861647","APOAPSIS":"548.371","EPOCH":"2022-04-09T19:32:02.927328","REV_AT_EPOCH":"10124","OBJECT_TYPE":"PAYLOAD","MEAN_MOTION_DOT":"-0.00001291","ARG_OF_PERICENTER":"55.1942","TIME_SYSTEM":"UTC","RCS_SIZE":"LARGE","EPHEMERIS_TYPE":"0","NORAD_CAT_ID":"45787","SITE":"AFETR","MEAN_ELEMENT_THEORY":"SGP4","BSTAR":"-0.00006778100000","OBJECT_NAME":"STARLINK-1517","TLE_LINE2":"2 45787  53.0543 135.5866 0001639  55.1942 304.9201 15.06392854101242","PERIAPSIS":"546.100","CENTER_NAME":"EARTH","LAUNCH_DATE":"2020-06-13","COUNTRY_CODE":"US","PERIOD":"95.593"},{"LAUNCH_DATE":"2020-08-07","CENTER_NAME":"EARTH","PERIAPSIS":"546.171","TLE_LINE2":"2 46027  53.0536  67.4770 0001505  59.0554 301.0582 15.06400206 93301","OBJECT_NAME":"STARLINK-1522","PERIOD":"95.592","COUNTRY_CODE":"US","ARG_OF_PERICENTER":"59.0554","MEAN_MOTION_DOT":"-0.00000283","OBJECT_TYPE":"PAYLOAD","BSTAR":"-0.00000012808000","MEAN_ELEMENT_THEORY":"SGP4","SITE":"AFETR","EPHEMERIS_TYPE":"0","NORAD_CAT_ID":"46027","RCS_SIZE":"LARGE","TIME_SYSTEM":"UTC","GP_ID":"200827384","ECCENTRICITY":"0.00015050","DECAY_DATE":null,"TLE_LINE1":"1 46027U 20055A   22099.38909948 -.00000283  00000-0 -12808-6 0  9993","INCLINATION":"53.0536","REF_FRAME":"TEME","REV_AT_EPOCH":"9330","EPOCH":"2022-04-09T09:20:18.195072","APOAPSIS":"548.255","SEMIMAJOR_AXIS":"6925.348","MEAN_MOTION_DDOT":"0.0000000000000","CLASSIFICATION_TYPE":"U","RA_OF_ASC_NODE":"67.4770","OBJECT_ID":"2020-055A","MEAN_ANOMALY":"301.0582","FILE":"3394949","ELEMENT_SET_NO":"999","MEAN_MOTION":"15.06400206"},{"TLE_LINE1":"1 46028U 20055B   22099.60289122  .00000133  00000-0  27839-4 0  9994","INCLINATION":"53.0542","REF_FRAME":"TEME","DECAY_DATE":null,"GP_ID":"200859947","ECCENTRICITY":"0.00018270","APOAPSIS":"548.475","EPOCH":"2022-04-09T14:28:09.801408","REV_AT_EPOCH":"9335","MEAN_MOTION_DDOT":"0.0000000000000","CLASSIFICATION_TYPE":"U","SEMIMAJOR_AXIS":"6925.345","FILE":"3395351","MEAN_MOTION":"15.06401114","ELEMENT_SET_NO":"999","MEAN_ANOMALY":"315.9028","OBJECT_ID":"2020-055B","RA_OF_ASC_NODE":"66.5159","OBJECT_NAME":"STARLINK-1523","TLE_LINE2":"2 46028  53.0542  66.5159 0001827  44.2107 315.9028 15.06401114 93350","PERIAPSIS":"545.945","CENTER_NAME":"EARTH","LAUNCH_DATE":"2020-08-07","COUNTRY_CODE":"US","PERIOD":"95.592","OBJECT_TYPE":"PAYLOAD","MEAN_MOTION_DOT":"0.00000133","ARG_OF_PERICENTER":"44.2107","TIME_SYSTEM":"UTC","RCS_SIZE":"LARGE","EPHEMERIS_TYPE":"0","NORAD_CAT_ID":"46028","SITE":"AFETR","MEAN_ELEMENT_THEORY":"SGP4","BSTAR":"0.00002783900000"}];
